CCSDS_OEM_VERS = 2.0
CREATION_DATE  = 2023-08-15T16:19:17.280
ORIGINATOR     = NASA/JSC/FOD/TOPO

META_START
OBJECT_NAME          = ISS
OBJECT_ID            = 1998-067-A
CENTER_NAME          = Earth
REF_FRAME            = EME2000
TIME_SYSTEM          = UTC
START_TIME           = 2023-08-14T12:00:00.000
USEABLE_START_TIME   = 2023-08-14T12:00:00.000
USEABLE_STOP_TIME    = 2023-08-29T12:00:00.000
STOP_TIME            = 2023-08-29T12:00:00.000
META_STOP

COMMENT Source: This file was produced by the TOPO office within FOD at JSC.
COMMENT Units are in kg and m^2
COMMENT MASS=458369.80
COMMENT DRAG_AREA=1450.20
COMMENT DRAG_COEFF=2.10
COMMENT SOLAR_RAD_AREA=0.00
COMMENT SOLAR_RAD_COEFF=0.00
COMMENT Orbits start at the ascending node epoch
COMMENT ISS first asc. node: EPOCH = 2023-08-14T12:44:17.910 $ ORBIT = 1083 $ LAN(DEG) = -114.28435
COMMENT ISS last asc. node : EPOCH = 2023-08-29T11:49:54.281 $ ORBIT = 1315 $ LAN(DEG) = 170.49568
COMMENT Begin sequence of events
COMMENT TRAJECTORY EVENT SUMMARY:
COMMENT 
COMMENT |       EVENT        |       TIG        | ORB |   DV    |   HA    |   HP    |
COMMENT |                    |       GMT        |     |   M/S   |   KM    |   KM    |
COMMENT |                    |                  |     |  (F/S)  |  (NM)   |  (NM)   |
COMMENT =============================================================================
COMMENT  83P Undock            232:23:49:30.000             0.0     422.8     412.8
COMMENT                                                    (0.0)   (228.3)   (222.9)
COMMENT 
COMMENT  85P Launch            235:01:08:00.000             0.0     423.3     412.2
COMMENT                                                    (0.0)   (228.6)   (222.5)
COMMENT 
COMMENT  85P Docking           237:03:00:06.000             0.0     423.2     411.6
COMMENT                                                    (0.0)   (228.5)   (222.2)
COMMENT 
COMMENT  Crew-7 Launch         237:07:49:00.000             0.0     423.3     411.7
COMMENT                                                    (0.0)   (228.6)   (222.3)
COMMENT 
COMMENT  Crew-7 Dock           238:06:45:00.000             0.0     423.6     411.4
COMMENT                                                    (0.0)   (228.7)   (222.1)
COMMENT 
COMMENT =============================================================================
COMMENT End sequence of events
2023-08-23T12:28:00.000 -4269.586181899590 3523.404457309310 3938.156147468470 -5.93880550024671 -2.66686903821246 -4.03898333133005
2023-08-23T12:32:00.000 -5522.341175188040 2763.021651579530 2837.016178037290 -4.43701135369750 -3.63101636123325 -5.08105478206117
2023-08-23T12:36:00.000 -6373.446785916700 1801.683001329870 1528.956789871310 -2.61221092642804 -4.33123003785364 -5.75269920787980
2023-08-23T12:40:00.000 -6760.985273852970 709.300645783071 109.375585467585 -0.59767581363192 -4.71635543714310 -6.00469850768142
2023-08-23T12:44:00.000 -6656.940003119630 -434.656597524433 -1318.187282503040 1.45916627809354 -4.75845031293512 -5.81889483601333
2023-08-23T12:48:00.000 -6069.239393456560 -1547.041384957890 -2649.724902917960 3.40812764858361 -4.45497163977072 -5.20953229317119
2023-08-23T12:52:00.000 -5041.046511485050 -2547.158508394490 -3788.431756156470 5.10763655204181 -3.82872312898058 -4.22194858627029
2023-08-23T12:56:00.000 -3647.404205368790 -3362.640231079790 -4651.749418658790 6.43518411153185 -2.92578052778510 -2.92870622788158
2023-08-23T13:00:00.000 -1989.606609263200 -3934.609057524650 -5177.247243540420 7.29575768867985 -1.81177250490719 -1.42390311992522
2023-08-23T13:04:00.000 -187.804816421823 -4221.804148726260 -5326.972781042170 7.62804030095749 -0.56698156940321 0.18379190514263
2023-08-23T13:08:00.000 1627.578062399290 -4203.435962494130 -5090.054634071910 7.40819731893094 0.71926034942393 1.77866967694713
2023-08-23T13:12:00.000 3325.066630068660 -3880.639854786300 -4483.453269509590 6.65134621013845 1.95459660225645 3.24580719406754
2023-08-23T13:16:00.000 4781.434366111650 -3276.464735975470 -3550.840314997780 5.41080479864957 3.04980706717899 4.47881096053666
2023-08-23T13:20:00.000 5890.560915047740 -2434.369989304720 -2359.648198462900 3.77510698657379 3.92506276329884 5.38728610128940
2023-08-23T13:24:00.000 6571.266896441240 -1415.245350694200 -996.376686739982 1.86240344556937 4.51587208308945 5.90380023838801
2023-08-23T13:28:00.000 6773.490552684630 -293.088408325665 439.627038272369 -0.18774643649723 4.77828527822027 5.98952434742720
2023-08-23T13:32:00.000 6482.180061771460 850.415687649228 1843.493898692220 -2.22502957525881 4.69262120275265 5.63758728224036
2023-08-23T13:36:00.000 5718.503327669260 1931.949779499110 3112.636557213500 -4.09989025263316 4.26506305520284 4.87377488148808
2023-08-23T13:40:00.000 4538.265034989590 2872.758335461180 4154.399052981980 -5.67511734002869 3.52716975562846 3.75449717346694
2023-08-23T13:44:00.000 3027.659257852370 3604.453725614640 4892.894372746180 -6.83622603269956 2.53317371995768 2.36210933240330
2023-08-23T13:48:00.000 1296.805357609610 4073.965011755370 5274.472892196940 -7.49943978430401 1.35565381630428 0.79839416193191
2023-08-23T13:52:00.000 -528.333304646397 4247.308904070200 5271.512752304380 -7.61724649296827 0.08012688592511 -0.82283069512845
2023-08-23T13:56:00.000 -2315.080008793140 4111.966862452650 4884.337217651470 -7.18146586018795 -1.20112080669148 -2.38390994700955
2023-08-23T14:00:00.000 -3933.565144973880 3677.747946655230 4141.147992040250 -6.22355703559037 -2.39535406869316 -3.77150373293706
2023-08-23T14:04:00.000 -5266.065927875100 2976.132889670560 3096.033757757200 -4.81275253137116 -3.41579842548579 -4.88452251701939
2023-08-23T14:08:00.000 -6215.586847959270 2058.071028096040 1825.127337002960 -3.05157192923421 -4.18802156717188 -5.64153371919017
2023-08-23T14:12:00.000 -6713.027794261980 990.312853902116 421.099653013463 -1.06854129161119 -4.65561829267789 -5.98704387112702
2023-08-23T14:16:00.000 -6722.331072677680 -149.465031909529 -1013.637587981190 0.99125151601973 -4.78455279389733 -5.89594082551681
2023-08-23T14:20:00.000 -6243.146037648180 -1278.394298049450 -2374.519007087350 2.97726721476663 -4.56587082721882 -5.37548851542508
2023-08-23T14:24:00.000 -5310.745875704470 -2314.538340233230 -3562.554894809780 4.74505957149049 -4.01618782023999 -4.46452418605090
2023-08-23T14:28:00.000 -3993.259179462170 -3182.876263996280 -4491.557674588930 6.16695220652004 -3.17609507844915 -3.23016532284265
2023-08-23T14:32:00.000 -2386.517754474600 -3820.684579151910 -5094.316719386760 7.14106807604262 -2.10679397566196 -1.76238018588773
2023-08-23T14:36:00.000 -607.025284338426 -4181.946147270210 -5327.292277284350 7.59793754083348 -0.88545386342111 -0.16728578347499
2023-08-23T14:40:00.000 1216.393118274620 -4240.541655205180 -5173.613193531870 7.50487319242143 0.40023839797145 1.44028152928603
2023-08-23T14:44:00.000 2951.706620636400 -3992.071263854570 -4644.242526678100 6.86801624753978 1.65798836861062 2.94451173962722
2023-08-23T14:48:00.000 4473.023315843280 -3454.219337116020 -3777.265917506170 5.73215032954220 2.79710021497548 4.23649866607146
2023-08-23T14:52:00.000 5669.600564163850 -2665.616016263730 -2635.312199845300 4.17810225454903 3.73476265052537 5.22184136198456
2023-08-23T14:56:00.000 6453.946617384370 -1683.215011634320 -1301.222170539780 2.31777946067315 4.40205245527281 5.82760612208421
2023-08-23T15:00:00.000 6768.433690617950 -578.289047085316 127.849764151418 0.28664961016871 4.74940857845068 6.00832067122482
2023-08-23T15:04:00.000 6589.780572885800 568.758043924037 1547.563822436220 -1.76639137229239 4.75084403048968 5.75003771120514
2023-08-23T15:08:00.000 5930.898949388100 1674.353598109250 2854.170395766860 -3.69059897248972 4.40611550213946 5.07159088705739
2023-08-23T15:12:00.000 4839.928597310700 2657.973248584000 3952.249294192180 -5.34505047015360 3.74067438817388 4.02307897137074
2023-08-23T15:16:00.000 3396.569737006750 3448.083894107560 4761.765551219230 -6.60929270753444 2.80347201362558 2.68173471795614
2023-08-23T15:20:00.000 1706.089987832880 3987.342971914780 5223.876902624680 -7.39194812584637 1.66304296230130 1.14578482992603
2023-08-23T15:24:00.000 -108.443754256074 4236.698484883490 5305.106792073260 -7.63688194732206 0.40231971024623 -0.47292056098967
2023-08-23T15:28:00.000 -1915.099655549420 4178.131952907260 4999.662027629570 -7.32673480518633 -0.88739246752817 -2.05687263490366
2023-08-23T15:32:00.000 -3582.567551358670 3815.907955549760 4329.816029665980 -6.48401076158561 -2.11277988971319 -3.49107814317334
2023-08-23T15:36:00.000 -4989.597382815070 3176.284794186440 3344.324499803570 -5.16960338865867 -3.18494166255702 -4.67114742074392
2023-08-23T15:40:00.000 -6033.797562511820 2305.686712183930 2114.960755757480 -3.47888715509122 -4.02577812404382 -5.51085374074459
2023-08-23T15:44:00.000 -6639.168182791150 1267.390075222120 731.346145439311 -1.53511850620128 -4.57385554755682 -5.94866488025488
2023-08-23T15:48:00.000 -6761.759948145380 136.919881307441 -705.603561602222 0.51955259350133 -4.78921138523520 -5.95262464722273
2023-08-23T15:52:00.000 -6392.941681089730 -1003.516402234660 -2091.136647805120 2.53486193896825 -4.65649373513603 -5.52294679827330
2023-08-23T15:56:00.000 -5559.954437326340 -2071.111246834380 -3324.425660679410 4.36405461091922 -4.18602840891848 -4.69184435499507
2023-08-23T16:00:00.000 -4323.735659485210 -2988.523329078870 -4315.952648848660 5.87480291868308 -3.41270549383036 -3.52068837457027
2023-08-23T16:04:00.000 -2774.281392811810 -3689.455250489620 -4993.947844707180 6.95869032114408 -2.39302566575657 -2.09502152280588
2023-08-23T16:08:00.000 -1023.995545438320 -4123.330850573360 -5309.430576642440 7.53839311087503 -1.20068580940640 -0.51804455699086
2023-08-23T16:12:00.000 800.396069543562 -4258.807061108740 -5239.583135575730 7.57250235848489 0.07866473870398 1.09666952897546
